OBJECT_NAME,OBJECT_ID,EPOCH,MEAN_MOTION,ECCENTRICITY,INCLINATION,RA_OF_ASC_NODE,ARG_OF_PERICENTER,MEAN_ANOMALY,EPHEMERIS_TYPE,CLASSIFICATION_TYPE,NORAD_CAT_ID,ELEMENT_SET_NO,REV_AT_EPOCH,BSTAR,MEAN_MOTION_DOT,MEAN_MOTION_DDOT
STARLINK-36235,2026-063W,2026-07-05T23:30:31.280544,15.33444690,.00017097,97.2862,328.9569,39.3581,320.7786,0,U,68400,999,1602,.5742775E-3,.1851E-3,0
STARLINK-37175,2026-063X,2026-07-05T22:31:48.503712,15.33409339,.0001517,97.2867,328.8553,100.2853,259.8560,0,U,68401,999,1601,.37918618E-3,.12173E-3,0
STARLINK-36360,2026-063Y,2026-07-05T22:00:27.405504,15.33427376,.00023821,97.2862,328.8895,162.4044,197.7282,0,U,68402,999,1601,-.75238806E-3,-.24276E-3,0
STARLINK-37218,2026-063Z,2026-07-06T06:00:04.000320,15.36922866,.00010224,97.2852,332.1083,98.9143,302.0428,0,U,68403,999,594,.20548684E-2,.74744E-3,0
STARLINK-37188,2026-063AA,2026-07-05T22:59:11.611392,15.33422594,.00014183,97.2857,328.9868,233.1041,127.0072,0,U,68404,999,1602,.74358555E-4,.2324E-4,0
STARLINK-37262,2026-068A,2026-07-05T18:14:46.683456,15.34321068,.00011493,53.1592,292.7980,98.5625,261.5508,0,U,68508,999,1513,.13355186E-2,.44903E-3,0
STARLINK-36292,2026-068B,2026-07-05T17:12:40.953888,15.34323463,.00008197,53.1590,298.3366,59.0742,301.0341,0,U,68509,999,1505,.74853162E-3,.24937E-3,0
STARLINK-37260,2026-068C,2026-07-05T18:27:35.825760,15.34319594,.00011903,53.1592,296.4812,87.5301,272.5838,0,U,68510,999,1508,.91229877E-3,.30494E-3,0
STARLINK-37280,2026-068D,2026-07-05T23:44:31.761600,15.34344110,.00010916,53.1581,291.3931,72.8652,287.2470,0,U,68511,999,1517,.20706425E-2,.70115E-3,0
STARLINK-37286,2026-068E,2026-07-05T21:46:29.766144,15.34319810,.00011244,53.1587,291.5941,76.6483,283.4645,0,U,68512,999,1516,.12663207E-2,.42542E-3,0
STARLINK-36250,2026-068F,2026-07-05T18:52:32.909664,15.34313765,.00012672,53.1586,298.0582,50.7312,309.3803,0,U,68513,999,1506,.11377515E-2,.38155E-3,0
STARLINK-37251,2026-068G,2026-07-05T13:44:00.144096,15.34348188,.00008185,53.1606,299.5818,90.2419,269.8677,0,U,68514,999,1502,.6530896E-3,.21717E-3,0
STARLINK-36293,2026-068H,2026-07-05T16:42:31.051872,15.34320418,.00013599,53.1590,298.9196,86.0553,274.0605,0,U,68515,999,1504,.1200727E-2,.40308E-3,0
STARLINK-36290,2026-068J,2026-07-05T14:20:13.911936,15.34279043,.00010629,53.1580,299.0027,91.1677,268.9447,0,U,68516,999,1503,.13246432E-2,.44472E-3,0
STARLINK-36298,2026-068K,2026-07-05T16:33:25.685568,15.34328489,.00013836,53.1583,298.8995,24.1426,335.9641,0,U,68517,999,1504,.51075954E-3,.16881E-3,0
STARLINK-36857,2026-068L,2026-07-05T17:36:55.710432,15.34301513,.00011484,53.1577,298.4420,98.5359,261.5774,0,U,68518,999,1505,.12934511E-2,.43442E-3,0
STARLINK-36326,2026-068M,2026-07-06T00:01:11.576352,15.34368831,.0001101,53.1579,297.2640,93.3337,266.7792,0,U,68519,999,1509,.10371139E-2,.34792E-3,0
STARLINK-37126,2026-068N,2026-07-05T20:38:28.223232,15.34307005,.00010334,53.1577,297.8056,93.0639,267.0482,0,U,68520,999,1507,.10718816E-2,.35906E-3,0
STARLINK-36347,2026-068P,2026-07-05T13:23:35.739456,15.34356465,.00004676,53.1592,301.6051,79.2231,280.8824,0,U,68521,999,1499,.15458585E-3,.4844E-4,0
STARLINK-36322,2026-068Q,2026-07-05T17:49:02.889120,15.34344121,.00009697,53.1562,298.4908,97.2898,262.8215,0,U,68522,999,1505,.12774284E-2,.42954E-3,0
STARLINK-37208,2026-068R,2026-07-05T21:57:07.132896,15.34348095,.00009446,53.1593,297.4311,84.0689,276.0422,0,U,68523,999,1508,.21009851E-2,.71166E-3,0
STARLINK-36302,2026-068S,2026-07-05T17:58:08.161248,15.34330753,.00013749,53.1588,298.5362,99.0094,261.1064,0,U,68524,999,1505,-.29732849E-4,-.1378E-4,0
STARLINK-36311,2026-068T,2026-07-05T21:02:42.233280,15.34340229,.00012049,53.1585,297.9139,90.9492,269.1649,0,U,68525,999,1507,.55446863E-3,.18368E-3,0
STARLINK-37178,2026-068U,2026-07-05T18:32:59.344512,15.49282966,.00012296,53.1587,295.1225,84.8296,275.2853,0,U,68526,999,1509,.11183227E-2,.62188E-3,0
STARLINK-37248,2026-068V,2026-07-05T17:51:14.358816,15.34309014,.00013385,53.1591,296.3098,89.1555,270.9601,0,U,68527,999,1508,.10047493E-2,.33625E-3,0
STARLINK-37241,2026-068W,2026-07-05T17:37:44.192064,15.34301940,.00011972,53.1587,300.5706,78.5513,281.5624,0,U,68528,999,1502,.14972284E-2,.50392E-3,0
STARLINK-37244,2026-068X,2026-07-05T13:31:53.546880,15.34353846,.00017486,53.1588,299.5206,133.8065,226.3082,0,U,68529,999,1502,.12388226E-2,.41651E-3,0
STARLINK-36285,2026-068Y,2026-07-05T17:46:49.439136,15.34329690,.0001271,53.1585,300.6109,44.1460,315.9643,0,U,68530,999,1502,.15224877E-2,.51301E-3,0
STARLINK-36294,2026-068Z,2026-07-05T19:29:42.788256,15.34319315,.00013337,53.1583,300.3450,93.2595,266.8561,0,U,68531,999,1503,.58625038E-3,.19432E-3,0
STARLINK-36249,2026-068AA,2026-07-05T13:28:50.266560,15.34319345,.00020587,53.1585,299.5049,73.9175,286.2054,0,U,68532,999,1502,-.84879109E-3,-.28873E-3,0
