[ {"name": "STARLINK-36235", "line1": "1 68400U 26063W   26186.97952871  .00018510  00000+0  57428-3 0  9999", "line2": "2 68400  97.2862 328.9569 0001709  39.3581 320.7786 15.33444690 16023"}, {"name": "STARLINK-37175", "line1": "1 68401U 26063X   26186.93875583  .00012173  00000+0  37919-3 0  9992", "line2": "2 68401  97.2867 328.8553 0001517 100.2853 259.8560 15.33409339 16010"}, {"name": "STARLINK-36360", "line1": "1 68402U 26063Y   26186.91698386 -.00024276  00000+0 -75239-3 0  9991", "line2": "2 68402  97.2862 328.8895 0002382 162.4044 197.7282 15.33427376 16010"}, {"name": "STARLINK-37218", "line1": "1 68403U 26063Z   26187.25004630  .00074744  00000+0  20549-2 0  9999", "line2": "2 68403  97.2852 332.1083 0001022  98.9143 302.0428 15.36922866  5940"}, {"name": "STARLINK-37188", "line1": "1 68404U 26063AA  26186.95777328  .00002324  00000+0  74359-4 0  9992", "line2": "2 68404  97.2857 328.9868 0001418 233.1041 127.0072 15.33422594 16020"}, {"name": "STARLINK-37262", "line1": "1 68508U 26068A   26186.76026254  .00044903  00000+0  13355-2 0  9992", "line2": "2 68508  53.1592 292.7980 0001149  98.5625 261.5508 15.34321068 15131"}, {"name": "STARLINK-36292", "line1": "1 68509U 26068B   26186.71714067  .00024937  00000+0  74853-3 0  9990", "line2": "2 68509  53.1590 298.3366 0000819  59.0742 301.0341 15.34323463 15052"}, {"name": "STARLINK-37260", "line1": "1 68510U 26068C   26186.76916465  .00030494  00000+0  91230-3 0  9996", "line2": "2 68510  53.1592 296.4812 0001190  87.5301 272.5838 15.34319594 15087"}, {"name": "STARLINK-37280", "line1": "1 68511U 26068D   26186.98925650  .00070115  00000+0  20706-2 0  9990", "line2": "2 68511  53.1581 291.3931 0001091  72.8652 287.2470 15.34344110 15175"}, {"name": "STARLINK-37286", "line1": "1 68512U 26068E   26186.90728896  .00042542  00000+0  12663-2 0  9992", "line2": "2 68512  53.1587 291.5941 0001124  76.6483 283.4645 15.34319810 15166"}, {"name": "STARLINK-36250", "line1": "1 68513U 26068F   26186.78649201  .00038155  00000+0  11378-2 0  9998", "line2": "2 68513  53.1586 298.0582 0001267  50.7312 309.3803 15.34313765 15067"}, {"name": "STARLINK-37251", "line1": "1 68514U 26068G   26186.57222389  .00021717  00000+0  65309-3 0  9990", "line2": "2 68514  53.1606 299.5818 0000818  90.2419 269.8677 15.34348188 15029"}, {"name": "STARLINK-36293", "line1": "1 68515U 26068H   26186.69619273  .00040308  00000+0  12007-2 0  9999", "line2": "2 68515  53.1590 298.9196 0001359  86.0553 274.0605 15.34320418 15044"}, {"name": "STARLINK-36290", "line1": "1 68516U 26068J   26186.59738324  .00044472  00000+0  13246-2 0  9990", "line2": "2 68516  53.1580 299.0027 0001062  91.1677 268.9447 15.34279043 15036"}, {"name": "STARLINK-36298", "line1": "1 68517U 26068K   26186.68988062  .00016881  00000+0  51076-3 0  9994", "line2": "2 68517  53.1583 298.8995 0001383  24.1426 335.9641 15.34328489 15046"}, {"name": "STARLINK-36857", "line1": "1 68518U 26068L   26186.73397813  .00043442  00000+0  12935-2 0  9992", "line2": "2 68518  53.1577 298.4420 0001148  98.5359 261.5774 15.34301513 15059"}, {"name": "STARLINK-36326", "line1": "1 68519U 26068M   26187.00082843  .00034792  00000+0  10371-2 0  9998", "line2": "2 68519  53.1579 297.2640 0001101  93.3337 266.7792 15.34368831 15098"}, {"name": "STARLINK-37126", "line1": "1 68520U 26068N   26186.86004888  .00035906  00000+0  10719-2 0  9990", "line2": "2 68520  53.1577 297.8056 0001033  93.0639 267.0482 15.34307005 15075"}, {"name": "STARLINK-36347", "line1": "1 68521U 26068P   26186.55805254  .00004844  00000+0  15459-3 0  9997", "line2": "2 68521  53.1592 301.6051 0000467  79.2231 280.8824 15.34356465 14993"}, {"name": "STARLINK-36322", "line1": "1 68522U 26068Q   26186.74239455  .00042954  00000+0  12774-2 0  9993", "line2": "2 68522  53.1562 298.4908 0000969  97.2898 262.8215 15.34344121 15059"}, {"name": "STARLINK-37208", "line1": "1 68523U 26068R   26186.91466589  .00071166  00000+0  21010-2 0  9993", "line2": "2 68523  53.1593 297.4311 0000944  84.0689 276.0422 15.34348095 15080"}, {"name": "STARLINK-36302", "line1": "1 68524U 26068S   26186.74870557 -.00001378  00000+0 -29733-4 0  9991", "line2": "2 68524  53.1588 298.5362 0001374  99.0094 261.1064 15.34330753 15053"}, {"name": "STARLINK-36311", "line1": "1 68525U 26068T   26186.87687770  .00018368  00000+0  55447-3 0  9994", "line2": "2 68525  53.1585 297.9139 0001204  90.9492 269.1649 15.34340229 15078"}, {"name": "STARLINK-37178", "line1": "1 68526U 26068U   26186.77290908  .00062188  00000+0  11183-2 0  9994", "line2": "2 68526  53.1587 295.1225 0001229  84.8296 275.2853 15.49282966 15094"}, {"name": "STARLINK-37248", "line1": "1 68527U 26068V   26186.74391619  .00033625  00000+0  10047-2 0  9995", "line2": "2 68527  53.1591 296.3098 0001338  89.1555 270.9601 15.34309014 15088"}, {"name": "STARLINK-37241", "line1": "1 68528U 26068W   26186.73453926  .00050392  00000+0  14972-2 0  9996", "line2": "2 68528  53.1587 300.5706 0001197  78.5513 281.5624 15.34301940 15024"}, {"name": "STARLINK-37244", "line1": "1 68529U 26068X   26186.56381420  .00041651  00000+0  12388-2 0  9994", "line2": "2 68529  53.1588 299.5206 0001748 133.8065 226.3082 15.34353846 15024"}, {"name": "STARLINK-36285", "line1": "1 68530U 26068Y   26186.74084999  .00051301  00000+0  15225-2 0  9993", "line2": "2 68530  53.1585 300.6109 0001271  44.1460 315.9643 15.34329690 15021"}, {"name": "STARLINK-36294", "line1": "1 68531U 26068Z   26186.81230079  .00019432  00000+0  58625-3 0  9995", "line2": "2 68531  53.1583 300.3450 0001333  93.2595 266.8561 15.34319315 15036"}, {"name": "STARLINK-36249", "line1": "1 68532U 26068AA  26186.56169290 -.00028873  00000+0 -84879-3 0  9995", "line2": "2 68532  53.1585 299.5049 0002058  73.9175 286.2054 15.34319345 15021"}]